{
    "links": {
        "self": "http://www.neowsapp.com/rest/v1/neo/3170218?api_key=iIulBulltgU6a56xZRHN4H3l9WmuAYTsLGpBGhQ2"
    },
    "id": "3170218",
    "neo_reference_id": "3170218",
    "name": "(2003 YD45)",
    "designation": "2003 YD45",
    "nasa_jpl_url": "http://ssd.jpl.nasa.gov/sbdb.cgi?sstr=3170218",
    "absolute_magnitude_h": 21.0,
    "estimated_diameter": {
        "kilometers": {
            "estimated_diameter_min": 0.1677084622,
            "estimated_diameter_max": 0.3750075218
        },
        "meters": {
            "estimated_diameter_min": 167.7084621628,
            "estimated_diameter_max": 375.0075217981
        },
        "miles": {
            "estimated_diameter_min": 0.1042091748,
            "estimated_diameter_max": 0.2330187988
        },
        "feet": {
            "estimated_diameter_min": 550.2246310023,
            "estimated_diameter_max": 1230.3396778159
        }
    },
    "is_potentially_hazardous_asteroid": true,
    "close_approach_data": [
        {
            "close_approach_date": "2003-12-04",
            "close_approach_date_full": "2003-Dec-04 23:04",
            "epoch_date_close_approach": 1070579040000,
            "relative_velocity": {
                "kilometers_per_second": "22.204028655",
                "kilometers_per_hour": "79934.5031579384",
                "miles_per_hour": "49668.1916983312"
            },
            "miss_distance": {
                "astronomical": "0.1394810833",
                "lunar": "54.2581414037",
                "kilometers": "20866072.966972571",
                "miles": "12965576.5199046398"
            },
            "orbiting_body": "Earth"
        }
    ],
    "orbital_data": {
        "orbit_id": "18",
        "orbit_determination_date": "2017-04-06 09:13:23",
        "first_observation_date": "2003-12-20",
        "last_observation_date": "2004-01-19",
        "data_arc_in_days": 30,
        "observations_used": 60,
        "orbit_uncertainty": "7",
        "minimum_orbit_intersection": ".0293186",
        "jupiter_tisserand_invariant": "3.073",
        "epoch_osculation": "2459000.5",
        "eccentricity": ".6927178597830448",
        "semi_major_axis": "2.495831371772923",
        "inclination": "8.420713841759186",
        "ascending_node_longitude": "252.2517881507258",
        "orbital_period": "1440.194957126209",
        "perihelion_distance": ".7669244055390029",
        "perihelion_argument": "104.9108608182925",
        "aphelion_distance": "4.224738338006842",
        "perihelion_time": "2458679.370364685159",
        "mean_anomaly": "80.2715411141463",
        "mean_motion": ".2499661578584822",
        "equinox": "J2000",
        "orbit_class": {
            "orbit_class_type": "APO",
            "orbit_class_description": "Near-Earth asteroid orbits which cross the Earth’s orbit similar to that of 1862 Apollo",
            "orbit_class_range": "a (semi-major axis) > 1.0 AU; q (perihelion) < 1.017 AU"
        }
    },
    "is_sentry_object": false
}